1683763501
1 51085U 22002DF  23129.43634824  .00009657  00000+0  48999-3 0  9994
2 51085  97.4418 194.9678 0014034  34.0763  76.0714 15.17046170 72728
1683785101
1 51085U 22002DF  23130.49441976  .00009965  00000+0  50520-3 0  9991
2 51085  97.4410 196.0052 0013936  30.5502  94.4869 15.17069091 72880
1683806701
1 51085U 22002DF  23130.87792662  .00009995  00000+0  50657-3 0  9998
2 51085  97.4412 196.3818 0013870  29.3091  28.9037 15.17076929 72945
1683828301
1 51085U 22002DF  23131.14193431  .00010025  00000+0  50803-3 0  9997
2 51085  97.4411 196.6410 0013789  28.6186  30.5536 15.17082525 72987
1683849901
1 51085U 22002DF  23131.14193431  .00010025  00000+0  50803-3 0  9997
2 51085  97.4411 196.6410 0013789  28.6186  30.5536 15.17082525 72987
1683871501
1 51085U 22002DF  23131.67732353  .00010140  00000+0  51364-3 0  9998
2 51085  97.4404 197.1661 0013807  26.7713  74.5809 15.17094223 73068
1683893101
1 51085U 22002DF  23131.80787534  .00010129  00000+0  51305-3 0  9996
2 51085  97.4404 197.2945 0013819  26.3168  67.5954 15.17096801 73086
1683914701
1 51085U 22002DF  23132.07053090  .00010182  00000+0  51564-3 0  9995
2 51085  97.4406 197.5527 0013714  25.6447  61.8675 15.17102642 73126
1683936301
1 51085U 22002DF  23132.07053090  .00010182  00000+0  51564-3 0  9995
2 51085  97.4406 197.5527 0013714  25.6447  61.8675 15.17102642 73126
1683957901
1 51085U 22002DF  23132.47383579  .00010258  00000+0  51935-3 0  9993
2 51085  97.4406 197.9491 0013694  24.2459 104.5509 15.17111486 73188
1683979501
1 51085U 22002DF  23132.92782535  .00010294  00000+0  52098-3 0  9999
2 51085  97.4407 198.3953 0013722  22.6069  64.1310 15.17121188 73257
1684001101
1 51085U 22002DF  23133.25457900  .00010325  00000+0  52243-3 0  9998
2 51085  97.4408 198.7163 0013723  21.3104  48.9066 15.17128244 73306
1684022701
1 51085U 22002DF  23133.25457900  .00010325  00000+0  52243-3 0  9998
2 51085  97.4408 198.7163 0013723  21.3104  48.9066 15.17128244 73306
1684044301
1 51085U 22002DF  23133.46276917  .00010391  00000+0  52566-3 0  9999
2 51085  97.4406 198.9207 0013696  20.5378 106.0237 15.17133056 73334
1684065901
1 51085U 22002DF  23133.85184688  .00010456  00000+0  52886-3 0  9992
2 51085  97.4405 199.3027 0013570  19.3890  70.8465 15.17141665 73396
1684087501
1 51085U 22002DF  23133.85184688  .00010456  00000+0  52886-3 0  9992
2 51085  97.4405 199.3027 0013570  19.3890  70.8465 15.17141665 73396
1684109101
1 51085U 22002DF  23134.37503796  .00010507  00000+0  53124-3 0  9998
2 51085  97.4404 199.8166 0013525  17.7985  48.1477 15.17152983 73476
1684130701
1 51085U 22002DF  23134.45109874  .00010540  00000+0  53286-3 0  9992
2 51085  97.4404 199.8909 0013528  17.5176 103.5899 15.17154788 73484
1684152301
1 51085U 22002DF  23134.97934205  .00010474  00000+0  52942-3 0  9997
2 51085  97.4404 200.4097 0013460  15.7657 108.6455 15.17165169 73568
1684173901
1 51085U 22002DF  23135.16398935  .00010466  00000+0  52893-3 0  9999
2 51085  97.4404 200.5912 0013436  15.1480  37.1278 15.17168986 73598
1684195501
1 51085U 22002DF  23135.16398935  .00010466  00000+0  52893-3 0  9999
2 51085  97.4404 200.5912 0013436  15.1480  37.1278 15.17168986 73598
1684217101
1 51085U 22002DF  23135.63997995  .00010405  00000+0  52577-3 0  9994
2 51085  97.4405 201.0589 0013403  13.5124 116.8823 15.17178431 73661
1684238701
1 51085U 22002DF  23135.83082672  .00010293  00000+0  52014-3 0  9994
2 51085  97.4403 201.2461 0013291  12.8017  79.3003 15.17181464 73694
1684260301
1 51085U 22002DF  23136.15325429  .00010075  00000+0  50910-3 0  9991
2 51085  97.4402 201.5628 0013365  11.4360  40.5868 15.17186211 73749
1684281901
1 51085U 22002DF  23136.55890681  .00009874  00000+0  49899-3 0  9991
2 51085  97.4401 201.9608 0013135   9.8839  96.3509 15.17193037 73809
1684303501
1 51085U 22002DF  23136.55890681  .00009874  00000+0  49899-3 0  9991
2 51085  97.4401 201.9608 0013135   9.8839  96.3509 15.17193037 73809
1684325101
1 51085U 22002DF  23136.82028091  .00009728  00000+0  49160-3 0  9998
2 51085  97.4401 202.2176 0013094   8.9835  83.9370 15.17197120 73842
1684346701
1 51085U 22002DF  23137.13305472  .00007325  00000+0  37119-3 0  9996
2 51085  97.4402 202.5255 0012958   8.0259 352.1179 15.17192552 73890
1684368301
1 51085U 22002DF  23137.46281950  .00007257  00000+0  36773-3 0  9995
2 51085  97.4403 202.8494 0012929   6.9374 353.2036 15.17197517 73948
1684389901
1 51085U 22002DF  23137.46281950  .00007257  00000+0  36773-3 0  9995
2 51085  97.4403 202.8494 0012929   6.9374 353.2036 15.17197517 73948
1684411501
1 51085U 22002DF  23137.72663074  .00006801  00000+0  34481-3 0  9993
2 51085  97.4403 203.1084 0012906   6.0419 354.0968 15.17200923 73986
1684433101
1 51085U 22002DF  23138.12234628  .00006652  00000+0  33730-3 0  9997
2 51085  97.4402 203.4970 0012864   4.7064 355.4288 15.17206492 74041
1684454701
1 51085U 22002DF  23138.38615594  .00006411  00000+0  32521-3 0  9990
2 51085  97.4402 203.7561 0012833   3.8511 356.2818 15.17209367 74089
1684476301
1 51085U 22002DF  23138.38615594  .00006411  00000+0  32521-3 0  9990
2 51085  97.4402 203.7561 0012833   3.8511 356.2818 15.17209367 74089
1684497901
1 51085U 22002DF  23138.64996489  .00006240  00000+0  31660-3 0  9997
2 51085  97.4401 204.0152 0012806   2.9335 357.1971 15.17213019 74126
1684519501
1 51085U 22002DF  23139.11162926  .00006152  00000+0  31210-3 0  9994
2 51085  97.4401 204.4685 0012760   1.3417 358.7848 15.17219150 74193
1684541101
1 51085U 22002DF  23139.44138845  .00006057  00000+0  30731-3 0  9994
2 51085  97.4400 204.7924 0012731   0.2172 359.9064 15.17223145 74243
1684562701
1 51085U 22002DF  23139.70519512  .00006130  00000+0  31097-3 0  9995
2 51085  97.4399 205.0515 0012714 359.2802   0.8411 15.17226902 74284
1684584301
1 51085U 22002DF  23139.90304957  .00006262  00000+0  31756-3 0  9990
2 51085  97.4399 205.2459 0012694 358.5478   1.5717 15.17229759 74315
1684605901
1 51085U 22002DF  23140.16685469  .00007930  00000+0  40105-3 0  9991
2 51085  97.4398 205.5050 0012677 357.5909   2.5261 15.17236867 74350
1684627501
1 51085U 22002DF  23140.43065921  .00008790  00000+0  44411-3 0  9995
2 51085  97.4396 205.7640 0012630 356.7266   3.3883 15.17241475 74395
1684649101
1 51085U 22002DF  23140.43065921  .00008790  00000+0  44411-3 0  9995
2 51085  97.4396 205.7640 0012630 356.7266   3.3883 15.17241475 74395
1684670701
1 51085U 22002DF  23140.89231425  .00009568  00000+0  48291-3 0  9993
2 51085  97.4394 206.2175 0012587 355.0258   5.0849 15.17251052 74467
1684692301
1 51085U 22002DF  23141.15611616  .00009355  00000+0  47220-3 0  9992
2 51085  97.4393 206.4766 0012576 354.0439   6.0642 15.17255824 74500
1684713901
1 51085U 22002DF  23141.41991706  .00008713  00000+0  44000-3 0  9992
2 51085  97.4392 206.7357 0012542 352.9890   7.1166 15.17260334 74548
1684735501
1 51085U 22002DF  23141.41991706  .00008713  00000+0  44000-3 0  9992
2 51085  97.4392 206.7357 0012542 352.9890   7.1166 15.17260334 74548
1684757101
1 51085U 22002DF  23141.94751675  .00008896  00000+0  44907-3 0  9997
2 51085  97.4390 207.2539 0012491 350.9679   9.1327 15.17269805 74622
